YAOGAN 6                
1 34839U 09021A   23040.17336239  .00013338  00000+0  42337-3 0  9991
2 34839  97.1120  15.0027 0025132 164.3985 195.8038 15.32467810767464
DEIMOS-1                
1 35681U 09041A   23040.13345128  .00000760  00000+0  12760-3 0  9994
2 35681  97.6910 243.7684 0001773 134.0758 226.0615 14.72288750726592
DUBAISAT-1              
1 35682U 09041B   23040.01096795  .00001472  00000+0  25517-3 0  9990
2 35682  97.8289 188.2450 0011856  38.6100 321.5950 14.69621847725025
OCEANSAT-2              
1 35931U 09051A   23040.20139551 -.00103728  00000+0 -51915-1 0  9995
2 35931  98.2962 129.2351 0002995 143.3963 216.5337 14.17454714708062
WORLDVIEW-2 (WV-2)      
1 35946U 09055A   23040.04514053  .00000328  00000+0  12445-3 0  9998
2 35946  98.4633 116.9330 0001040 350.1452   9.9693 14.37362838699904
SMOS                    
1 36036U 09059A   23039.52668876  .00000638  00000+0  21752-3 0  9992
2 36036  98.4409 228.6333 0001266  80.6485 279.4846 14.39738767697239
YAOGAN 7                
1 36110U 09069A   23040.19616903  .00000673  00000+0  10678-3 0  9999
2 36110  98.1734 267.6974 0026616  12.5581 347.6288 14.75282571709049
TANDEM-X                
1 36605U 10030A   23039.53161925  .00003448  00000+0  16725-3 0  9995
2 36605  97.4436  48.7468 0002213  88.0790  68.9971 15.19161528700705
CARTOSAT-2B             
1 36795U 10035A   23038.87970655 -.00000032  00000+0  26545-5 0  9994
2 36795  97.9289 101.3066 0013080 198.7348 161.4857 14.78684963678857
YAOGAN 10               
1 36834U 10038A   23040.14961426  .00000933  00000+0  12560-3 0  9999
2 36834  97.9711  54.8338 0001617  85.8597 274.2832 14.81573926675820
COSMO-SKYMED 4          
1 37216U 10060A   23040.07283904  .00000740  00000+0  99501-4 0  9996
2 37216  97.8880 225.3738 0001297  72.2301 287.9068 14.82161733663309
RESOURCESAT-2           
1 37387U 11015A   23040.09980888 -.00000689  00000+0 -29438-3 0  9998
2 37387  98.6377 112.9666 0005480 105.4807 254.7096 14.21655846612782
HAIYANG-2A              
1 37781U 11043A   23040.01117719  .00000025  00000+0  67604-4 0  9994
2 37781  99.3209  46.7732 0000484  37.0349 323.0836 13.78743178578230
RASAT                   
1 37791U 11044D   23040.14983923  .00000778  00000+0  15271-3 0  9995
2 37791  98.0892 134.4544 0022939 102.9650 257.4141 14.65274018613774
MEGHA-TROPIQUES         
1 37838U 11058A   23039.93436800  .00853847  18895-3  27628-2 0  9990
2 37838  19.9584 145.7658 0218824 270.7161  86.8204 15.60792049585955
SRMSAT                  
1 37841U 11058D   23039.98861236  .00000594  00000+0  18119-3 0  9998
2 37841  19.9714 265.0888 0011885  63.1576 327.1217 14.10828148584900
YAOGAN 13               
1 37941U 11072A   23040.12250293  .00011235  00000+0  45938-3 0  9991
2 37941  97.6625 359.3709 0001016  51.5968   4.5931 15.24526712620813
PLEIADES 1A             
1 38012U 11076F   23040.12422516  .00000586  00000+0  13587-3 0  9996
2 38012  98.1769 116.6839 0001274  78.0247 282.1113 14.58543685593578
ZIYUAN 1-02C (ZY 1-02C) 
1 38038U 11079A   23040.12376415 -.00000050  00000+0 -21453-5 0  9994
2 38038  98.5599 108.3848 0006738   8.3359 351.7934 14.36121409583440
ZIYUAN 3-1 (ZY 3-1)     
1 38046U 12001A   23040.20530118  .00009171  00000+0  40366-3 0  9993
2 38046  97.3135 109.8845 0001899  98.4208 346.0667 15.22064731615605
ARIRANG-3 (KOMPSAT-3)   
1 38338U 12025B   23038.39047324  .00018595  00000+0  37310-2 0  9996
2 38338  98.2080 341.3536 0010805 356.7614 112.5793 14.61693848572298
KANOPUS-V 1             
1 38707U 12039A   23039.75981241  .00009767  00000+0  38605-3 0  9997
2 38707  97.4749 325.7817 0002716  69.3559 290.7971 15.25692162585375
EXACTVIEW-1 (ADS-1B)    
1 38709U 12039C   23040.18474716  .00000282  00000+0  14244-3 0  9998
2 38709  98.9823 117.2217 0011966  97.7479 262.5058 14.24169376548430
SPOT 6                  
1 38755U 12047A   23040.14044510  .00000480  00000+0  11317-3 0  9997
2 38755  98.2061 109.2443 0000995  88.5509 271.5849 14.58559280554655
PLEIADES 1B             
1 39019U 12068A   23040.15855433  .00000474  00000+0  11172-3 0  9991
2 39019  98.2076 116.6704 0001154  87.0905 273.0464 14.58547536542433
GOKTURK 2               
1 39030U 12073A   23040.11630367  .00000689  00000+0  11479-3 0  9991
2 39030  97.8232 275.9226 0001578  50.0616 310.0747 14.72986991544191
LANDSAT 8               
1 39084U 13008A   23040.12853341  .00000884  00000+0  20607-3 0  9999
2 39084  98.1957 112.0939 0000991  86.3407 273.7905 14.57124058531466
SARAL                   
1 39086U 13009A   23039.89908131  .00000280  00000+0  12021-3 0  9993
2 39086  98.5442 227.0570 0001151 337.9607  22.1527 14.32129468520327
GAOFEN 1                
1 39150U 13018A   23040.15481095  .00000978  00000+0  14756-3 0  9992
2 39150  98.0465 111.1248 0020673 241.4941 118.4234 14.76471933527667
VNREDSAT 1              
1 39160U 13021B   23039.49216176  .00000997  00000+0  20388-3 0  9997
2 39160  98.0545 114.6600 0001563  89.4972  36.0735 14.62907670521121
ARIRANG-5 (KOMPSAT-5)   
1 39227U 13042A   23040.10591744  .00000936  00000+0  71174-4 0  9994
2 39227  97.6271 227.8316 0002403  14.8567 130.0885 15.04517170519861
SKYSAT-A                
1 39418U 13066C   23039.88227902  .00005918  00000+0  46368-3 0  9998
2 39418  97.5389 109.5331 0033089 178.7227 181.4088 15.00923536504101
DUBAISAT-2              
1 39419U 13066D   23040.12134609  .00002334  00000+0  21313-3 0  9991
2 39419  97.4253  64.9986 0012367 196.6876 163.3988 14.95910248502561
GPM-CORE                
1 39574U 14009C   23039.83589162  .00037781  00000+0  54288-3 0  9996
2 39574  64.9969 103.7050 0008918 261.0406  98.9731 15.55855957508380
SENTINEL-1A             
1 39634U 14016A   23040.16195018  .00000080  00000+0  26617-4 0  9990
2 39634  98.1812  49.3259 0001274  83.5944 276.5414 14.59201583471543
KAZEOSAT 1              
1 39731U 14024A   23040.17209946  .00000276  00000+0  97348-4 0  9990
2 39731  98.4419 118.4170 0001184  86.5662 273.5694 14.41997045462203
ALOS-2                  
1 39766U 14029A   23040.18749473  .00000241  00000+0  39125-4 0  9999
2 39766  97.9204 138.9265 0001726 101.9221 258.2258 14.79475546470634
KAZEOSAT 2              
1 40010U 14033A   23040.14594942  .00000814  00000+0  10862-3 0  9995
2 40010  97.6934 281.6024 0014706  28.7588 331.4464 14.82102774467507
HODOYOSHI-4             
1 40011U 14033B   23040.12210328  .00001504  00000+0  19396-3 0  9995
2 40011  97.6453 268.1567 0027213  25.7309 334.5294 14.82165783467145
DEIMOS-2                
1 40013U 14033D   23040.18412444  .00002049  00000+0  24034-3 0  9996
2 40013  97.7398 296.0346 0002654  71.0448 289.1081 14.86017334468345
HODOYOSHI-3             
1 40015U 14033F   23040.11747832  .00001861  00000+0  25388-3 0  9997
2 40015  97.6177 246.9789 0037650  52.0454 308.4151 14.79292180466310
SPOT 7                  
1 40053U 14034A   23040.17365656  .00000559  00000+0  13030-3 0  9990
2 40053  98.2203 108.8680 0001158  81.4240 278.7112 14.58526569458593
SKYSAT-B                
1 40072U 14037D   23040.09983678  .00002164  00000+0  27906-3 0  9996
2 40072  98.3785 284.9150 0004996 279.2039  80.8607 14.82156057464376
WORLDVIEW-3 (WV-3)      
1 40115U 14048A   23040.21172572  .00002427  00000+0  28874-3 0  9990
2 40115  97.8302 116.5064 0002899 102.4425 257.7114 14.85285287460277
GAOFEN 2                
1 40118U 14049A   23040.16201356  .00001459  00000+0  19640-3 0  9996
2 40118  97.7332 105.6081 0004726 269.6156  90.4561 14.80648047458129
YAOGAN 21               
1 40143U 14053A   23040.17697304  .00010686  00000+0  44630-3 0  9991
2 40143  97.3220 107.3114 0012828 110.4543 334.1575 15.23735736468595
YAOGAN 22               
1 40275U 14063A   23039.34617033 -.00000043  00000+0  74108-5 0  9998
2 40275 100.5889 164.6479 0006459  75.8168 284.3661 13.15450325398769
ASNARO                  
1 40298U 14070A   23040.22357134  .00013388  00000+0  63602-3 0  9993
2 40298  97.4498 124.5152 0006078 193.2899 222.7075 15.19330184458151
HODOYOSHI-1             
1 40299U 14070B   23040.17440649  .00011291  00000+0  38872-3 0  9994
2 40299  97.2142 106.3479 0011850  22.3058  62.2064 15.30136630459215
QSAT-EOS                
1 40301U 14070D   23040.16759586  .00035217  00000+0  65669-3 0  9998
2 40301  97.1760 109.0105 0013968 330.8723 113.2452 15.48624013459953
YAOGAN 23               
1 40305U 14071A   23040.20606966  .00014651  00000+0  57979-3 0  9995
2 40305  97.6383   0.1507 0002705  76.6881  47.4734 15.25555053456597
YAOGAN 24               
1 40310U 14072A   23040.13472902  .00001459  00000+0  21818-3 0  9990
2 40310  97.9969 162.8936 0015390 234.2232 125.7577 14.76156957443152
CBERS 4                 
1 40336U 14079A   23040.19995546  .00000181  00000+0  77908-4 0  9998
2 40336  98.4586 114.7918 0001626  92.4168 267.7226 14.35465620428376
RESURS P2               
1 40360U 14087A   23040.11581351  .00012156  00000+0  30611-3 0  9995
2 40360  97.1909 125.5568 0007473 322.7831 130.6060 15.40022157454634
YAOGAN 26               
1 40362U 14088A   23040.12103595  .00010890  00000+0  45934-3 0  9996
2 40362  97.1156  83.2536 0008333 338.3830  81.1443 15.23433909452065
SMAP                    
1 40376U 15003A   23040.14737649  .00001221  00000+0  24507-3 0  9995
2 40376  98.1294  48.5223 0001597  92.9335 267.2049 14.63412609428608
KOMPSAT-3A              
1 40536U 15014A   23040.11626157  .00006951  00000+0  40069-3 0  9999
2 40536  97.5583 344.8627 0002128   2.9746 185.3061 15.12699583434804
SENTINEL-2A             
1 40697U 15028A   23040.04666118  .00000182  00000+0  85899-4 0  9996
2 40697  98.5688 116.3892 0001214  89.0851 271.0463 14.30818610398680
GAOFEN 8                
1 40701U 15030A   23040.23466760  .00014105  00000+0  59026-3 0  9999
2 40701  97.5867 182.0691 0008034 339.5516 140.6089 15.23655519424437
